#aV2013  3 26  0  0  0.00000000     288 DD+AD WGS84 FIT  NGA
## 1733 172800.00000000   300.00000000 56377 0.0000000000000
+   31     1  2  3  4  5  6  7  8  9 10 11 12 13 14 15 16 17
+         18 19 20 21 22 23 24 25 26 28 29 30 31 32  0  0  0
+          0  0  0  0  0  0  0  0  0  0  0  0  0  0  0  0  0
+          0  0  0  0  0  0  0  0  0  0  0  0  0  0  0  0  0
+          0  0  0  0  0  0  0  0  0  0  0  0  0  0  0  0  0
++         2  2  2  2  2  2  2  2  2  2  2  2  2  2  2  2  2
++         2  2  2  2  2  2  2  2  2  2  2  2  2  2  2  0  0
++         0  0  0  0  0  0  0  0  0  0  0  0  0  0  0  0  0
++         0  0  0  0  0  0  0  0  0  0  0  0  0  0  0  0  0
++         0  0  0  0  0  0  0  0  0  0  0  0  0  0  0  0  0
%c cc cc ccc ccc cccc cccc cccc cccc ccccc ccccc ccccc ccccc
%c cc cc ccc ccc cccc cccc cccc cccc ccccc ccccc ccccc ccccc
%f  0.0000000  0.000000000  0.00000000000  0.000000000000000
%f  0.0000000  0.000000000  0.00000000000  0.000000000000000
%i    0    0    0    0      0      0      0      0         0
%i    0    0    0    0      0      0      0      0         0
/*      NGA, ST. LOUIS,MO.                                  
/*   EPHEMERIS COMPUTED FROM  1 DAYS OF DATA
/*   EPOCHA SMOOTHER  
/* CCCCCCCCCCCCCCCCCCCCCCCCCCCCCCCCCCCCCCCCCCCCCCCCCCCCCCCCC
*  2013  3 26 12 50  0.00000000                                                 
P  1  -8103.412125  19318.483186 -16299.774545     10.629555                    
V  1 -18178.449261  10075.253374  21076.532123      0.032123                    
P  2  22465.321101 -13240.520784  -3066.071857    424.139452                    
V  2  -1138.578047   5640.654946 -31273.424319      0.019089                    
P  3 -10855.778087  14793.174534  18618.782829    185.834487                    
V  3  -7264.858612 -23875.063749  14570.372983      0.051413                    
P  4  22599.204028  -2943.575279 -14152.391734    172.327967                    
V  4 -13022.275259  11855.159637 -23449.056983      0.108561                    
P  5  17492.945872  -6626.228336  18876.821145   -389.333220                    
V  5  21039.996614  11691.181622 -15229.429937     -0.014561                    
P  6 -14289.522977   8089.997356  20909.134420    299.451597                    
V  6  -4586.071813 -26100.689487   7350.443533     -0.152823                    
P  7   7537.513580  12870.209907  22011.802411    195.548043                    
V  7 -23379.607882  15063.128201  -1084.514431      0.043024                    
P  8  16877.625859   5623.925230  20024.735762      5.299121                    
V  8 -21801.464161  12071.554599  14494.629296      0.001579                    
P  9  22895.854268 -12844.534496   3620.525615    229.592050                    
V  9  -3170.667373   4684.663124  31804.334068      0.026376                    
P 10  24883.916172   7731.688385   5883.059132    -74.622989                    
V 10   5632.209199   6100.097054 -29929.184435     -0.013249                    
P 11 -10099.336589  23130.671961  -8247.940676   -366.169642                    
V 11 -10076.875408   4874.972614  27739.599903     -0.036806                    
P 12    209.830439 -15895.626790 -21340.430746    124.943037                    
V 12  24119.179524  11988.927974  -8500.151654      0.020579                    
P 13   4144.131654  25152.446156   7098.291272    134.502724                    
V 13  -2373.251940   9160.565399 -30570.798004     -0.035253                    
P 14 -13703.732892 -10333.187477 -20117.095713    221.033629                    
V 14    775.826613 -25899.498049  12514.180445      0.000815                    
P 15   5100.200075 -23787.853465  10319.188975   -112.911921                    
V 15   4564.792318  12867.441804  27582.814966     -0.013806                    
P 16 -18250.137043   4407.970839  18911.284973   -252.620135                    
V 16 -20547.451551 -12162.442635 -16654.182950      0.000084                    
P 17  14355.235865   9197.004148 -20210.832969     36.394379                    
V 17     30.502192  26089.544225  11538.066392     -0.039258                    
P 18 -19732.876646 -16297.006785   8146.203459    245.756052                    
V 18  10192.835933   1364.967626  28471.003899      0.018606                    
P 19  -9108.350050  21267.696083  12576.337058   -359.591308                    
V 19  -2337.202849 -16299.157669  26113.000111     -0.031523                    
P 20   2805.436067  17423.672190 -20046.164715     89.943067                    
V 20 -23708.364723  -8545.573656 -10767.554418      0.017732                    
P 21 -12408.741798 -10825.328644  21452.278862   -288.277257                    
V 21  21352.760993 -14867.345765   4435.860277     -0.021795                    
P 22 -24598.326898  -9855.590236  -2505.908863    162.372110                    
V 22  -1409.395901  -4899.646935  30650.861845      0.012359                    
P 23    191.007133  26261.621849  -2059.124979    101.295776                    
V 23  -3460.282970  -2508.504780 -31761.374039     -0.036599                    
P 24  11475.927293 -19643.865445 -13683.044974     -3.376184                    
V 24  15561.931737  -8060.362361  24674.769193     -0.006730                    
P 25 -11812.223150 -17663.333814 -16034.544180     81.369450                    
V 25  18975.412742   7173.339753 -21841.632071      0.034818                    
P 26  12508.418856 -13625.851610  18282.723988    -51.847598                    
V 26   1147.278468  24658.157041  17338.200933      0.147802                    
P 28  22915.186373  13601.085022   1304.378553    244.341273                    
V 28  -1765.401752   1266.813402  32058.226773      0.032815                    
P 29  -5660.252380 -24978.940184   7178.516010    420.444018                    
V 29   2237.205034  -9090.293268 -30056.950367      0.037273                    
P 30 -24303.490107  -1204.654457  10266.451283   -199.698675                    
V 30 -11891.834288  -6985.035863 -28036.771419      0.060309                    
P 31 -23182.513455   5612.652381 -11799.972109    308.098466                    
V 31  11773.168797  -9643.791590 -27039.341948      0.015583                    
P 32  -6370.317482  14085.512899 -21476.162863   -545.993123                    
V 32 -23751.570410 -14103.503534  -1678.816340     -0.027427                    
EOF
